[{"OBJECT_NAME":"ICEYE-X36","OBJECT_ID":"2024-043F","EPOCH":"2026-03-09T21:10:59.920608","MEAN_MOTION":15.05951442,"ECCENTRICITY":0.00048011,"INCLINATION":97.8198,"RA_OF_ASC_NODE":205.3571,"ARG_OF_PERICENTER":299.2298,"MEAN_ANOMALY":60.8448,"EPHEMERIS_TYPE":0,"CLASSIFICATION_TYPE":"U","NORAD_CAT_ID":59103,"ELEMENT_SET_NO":999,"REV_AT_EPOCH":11019,"BSTAR":0.00042378527,"MEAN_MOTION_DOT":6.107e-5,"MEAN_MOTION_DDOT":0},{"OBJECT_NAME":"STARLINK-35053","OBJECT_ID":"2025-207T","EPOCH":"2026-03-09T18:00:33.016896","MEAN_MOTION":15.05647822,"ECCENTRICITY":2.684e-5,"INCLINATION":97.6027,"RA_OF_ASC_NODE":138.7711,"ARG_OF_PERICENTER":225.1605,"MEAN_ANOMALY":134.96,"EPHEMERIS_TYPE":0,"CLASSIFICATION_TYPE":"U","NORAD_CAT_ID":65609,"ELEMENT_SET_NO":999,"REV_AT_EPOCH":2811,"BSTAR":0.00045328842,"MEAN_MOTION_DOT":6.485e-5,"MEAN_MOTION_DDOT":0}]
